FLOCK 4G-8              
1 62613U 25009E   26068.72381419  .00013559  00000+0  50438-3 0  9996
2 62613  97.4045 151.2834 0003050 315.2538  44.8455 15.27623414 63721
STARLINK-34252          
1 64330U 25124P   26068.52780726  .00027121  00000+0  99127-3 0  9992
2 64330  42.9998 122.8081 0001959 261.2103  98.8527 15.27585690 41754
